ION SCV-010             
1 56192U 23054Q   26176.74875675  .00005191  00000+0  20264-3 0  9990
2 56192  97.3780  66.1410 0013131 166.7340 193.4247 15.26263411177504
TELEOS-2                
1 56310U 23057C   26176.48744824  .00000683  00000+0 -34834-6 0  9990
2 56310   9.9873 143.7435 0000208 341.8813  18.1393 14.96397054174047
SNIPE 4                 
1 56744U 23072B   26176.84195632  .00021524  00000+0  49527-3 0  9993
2 56744  97.5248  23.1232 0003813 296.3820  63.7035 15.42654869171442
SNIPE 2                 
1 56745U 23072C   26176.85936611  .00032243  00000+0  63284-3 0  9991
2 56745  97.5241  26.2458 0003279 338.5877  21.5235 15.47267747171586
2023-072G               
1 56749U 23072G   26176.83889751  .00036085  00000+0  62042-3 0  9994
2 56749  97.4898  25.0380 0001846 330.1599  29.9547 15.51039447171807
GEISAT PRECURSOR        
1 56934U 23084C   26176.82543648  .00008056  00000+0  24151-3 0  9990
2 56934  97.6227 318.0637 0004267 321.5608  38.5330 15.34760126168859
BLACKJACK ACES-3        
1 56950U 23084U   26176.80251560  .00006015  00000+0  29456-3 0  9991
2 56950  97.6216 312.0592 0001837  14.6595 345.4691 15.18547282168470
BLACKJACK ACES-2        
1 56955U 23084Z   26176.80850289  .00007362  00000+0  35944-3 0  9994
2 56955  97.6211 312.1499 0000702 106.1949 253.9362 15.18575426168487
BLACKJACK ACES-1        
1 56956U 23084AA  26176.86229632  .00008192  00000+0  39977-3 0  9995
2 56956  97.6200 311.9769 0001125 126.1897 233.9440 15.18553860118216
ION SCV-011             
1 56957U 23084AB  26176.57462191  .00005782  00000+0  20882-3 0  9990
2 56957  98.1379   4.6317 0007401  18.8182 341.3328 15.28920751167099
GHOST-3                 
1 56958U 23084AC  26176.37300579  .00021346  00000+0  40769-3 0  9990
2 56958  97.6216 325.3852 0005758 260.1745  99.8855 15.48130254169287
TOMORROW-R2             
1 56962U 23084AG  26176.71900546  .02849339  25966-5  86604-3 0  9997
2 56962  97.6002 342.3346 0010718 254.2593 105.7517 16.26745437170432
AFR-1                   
1 56964U 23084AJ  26176.87328461  .00005006  00000+0  18249-3 0  9995
2 56964  97.6278 313.7738 0009251 313.7011  46.3461 15.28621738168558
METEOR-M2 3             
1 57166U 23091A   26176.88125691 -.00000002  00000+0  17874-4 0  9995
2 57166  98.6079 231.6817 0004775 134.0528 226.1044 14.24047413155752
UMKA 1 (RS40S)          
1 57172U 23091G   26176.84455604  .00007431  00000+0  33819-3 0  9996
2 57172  97.5052 235.5085 0014303  90.9703 269.3171 15.20910648165321
2023-091H               
1 57173U 23091H   26176.82321241  .00013351  00000+0  47833-3 0  9993
2 57173  97.5051 240.0853 0011172  87.0441 273.2077 15.28812569165625
2023-091J               
1 57174U 23091J   26176.84673727  .00004011  00000+0  22415-3 0  9997
2 57174  97.5054 229.8196 0014781 115.9252 244.3505 15.13982640164945
CUBEBEL 2 (EU11S)       
1 57175U 23091K   26176.82110072  .00015255  00000+0  53704-3 0  9992
2 57175  97.5054 240.1155 0011157  88.4989 271.7529 15.29356206165628
SITRO-AIS 5 (KATYS)     
1 57176U 23091L   26176.83642075  .00014051  00000+0  49038-3 0  9995
2 57176  97.5063 240.8183 0012499  76.5887 283.6745 15.29642249165663
ZORKIY-2M 1             
1 57177U 23091M   26176.83042825  .00008406  00000+0  38095-3 0  9991
2 57177  97.5093 235.7682 0014809  88.4348 271.8584 15.21010016165310
CUBESX-HSE 3 (RS42S)    
1 57178U 23091N   26176.86481690  .00016185  00000+0  53437-3 0  9992
2 57178  97.5094 242.5620 0011593  67.6729 292.5740 15.31420364165753
MONITOR-3 (RS58S)       
1 57180U 23091Q   26176.84306352  .00012582  00000+0  46191-3 0  9990
2 57180  97.5087 240.3529 0012812  74.0876 286.1774 15.28005767165615
MONITOR-4 (RS57S)       
1 57182U 23091S   26176.82163873  .00011925  00000+0  43686-3 0  9995
2 57182  97.5080 240.3029 0012816  74.3769 285.8884 15.28089775165612
MONITOR-2 (RS39S)       
1 57184U 23091U   26176.81084091  .00005235  00000+0  25306-3 0  9996
2 57184  97.5074 235.0379 0012765  85.0899 275.1793 15.18984502165265
SVYATOBOR 1 (RS60S)     
1 57187U 23091X   26176.84220891  .00010391  00000+0  39714-3 0  9999
2 57187  97.5092 240.7072 0010571  68.3707 291.8656 15.26752355165638
HORS 1                  
1 57188U 23091Y   26176.82713760  .00010159  00000+0  38709-3 0  9995
2 57188  97.5070 240.4532 0010048  68.5609 291.6701 15.26862852165638
VIZARD-METEO (RS38S)    
1 57189U 23091Z   26176.81125880  .00020243  00000+0  57332-3 0  9993
2 57189  97.5094 246.4700 0007641  51.2377 308.9548 15.36282701166018
SITRO-AIS 6 (CHIRKIN)   
1 57192U 23091AC  26176.83539831  .00011837  00000+0  46065-3 0  9994
2 57192  97.5071 239.8904 0012916  79.8089 280.4605 15.26089500165609
SITRO-AIS 8 (ANOKHIN)   
1 57193U 23091AD  26176.83824101  .00016461  00000+0  52788-3 0  9999
2 57193  97.5060 242.4442 0011444  73.0772 287.1723 15.32354437165779
SITRO-AIS 7 (FARTUSHNIY)
1 57194U 23091AE  26176.84032350  .00011735  00000+0  46107-3 0  9995
2 57194  97.5069 239.7159 0012788  80.7587 279.5096 15.25773907165591
