OBJECT_NAME,OBJECT_ID,EPOCH,MEAN_MOTION,ECCENTRICITY,INCLINATION,RA_OF_ASC_NODE,ARG_OF_PERICENTER,MEAN_ANOMALY,EPHEMERIS_TYPE,CLASSIFICATION_TYPE,NORAD_CAT_ID,ELEMENT_SET_NO,REV_AT_EPOCH,BSTAR,MEAN_MOTION_DOT,MEAN_MOTION_DDOT
ION SCV-010,2023-054Q,2026-06-25T17:58:12.583200,15.26263411,.0013131,97.3780,66.1410,166.7340,193.4247,0,U,56192,999,17750,.20264E-3,.5191E-4,0
TELEOS-2,2023-057C,2026-06-25T11:41:55.527936,14.96397054,.00002084,9.9873,143.7435,341.8813,18.1393,0,U,56310,999,17404,-.348345E-6,.683E-5,0
SNIPE 4,2023-072B,2026-06-25T20:12:25.026048,15.42654869,.0003813,97.5248,23.1232,296.3820,63.7035,0,U,56744,999,17144,.49527E-3,.21524E-3,0
SNIPE 2,2023-072C,2026-06-25T20:37:29.231904,15.47267747,.0003279,97.5241,26.2458,338.5877,21.5235,0,U,56745,999,17158,.63284E-3,.32243E-3,0
2023-072G,2023-072G,2026-06-25T20:08:00.744864,15.51039447,.0001846,97.4898,25.0380,330.1599,29.9547,0,U,56749,999,17180,.62042E-3,.36085E-3,0
GEISAT PRECURSOR,2023-084C,2026-06-25T19:48:37.711872,15.34760126,.0004267,97.6227,318.0637,321.5608,38.5330,0,U,56934,999,16885,.24151E-3,.8056E-4,0
BLACKJACK ACES-3,2023-084U,2026-06-25T19:15:37.347840,15.18547282,.0001837,97.6216,312.0592,14.6595,345.4691,0,U,56950,999,16847,.29456E-3,.6015E-4,0
BLACKJACK ACES-2,2023-084Z,2026-06-25T19:24:14.649696,15.18575426,.0000702,97.6211,312.1499,106.1949,253.9362,0,U,56955,999,16848,.35944E-3,.7362E-4,0
BLACKJACK ACES-1,2023-084AA,2026-06-25T20:41:42.402048,15.18553860,.0001125,97.6200,311.9769,126.1897,233.9440,0,U,56956,999,11821,.39977E-3,.8192E-4,0
ION SCV-011,2023-084AB,2026-06-25T13:47:27.333024,15.28920751,.0007401,98.1379,4.6317,18.8182,341.3328,0,U,56957,999,16709,.20882E-3,.5782E-4,0
GHOST-3,2023-084AC,2026-06-25T08:57:07.700256,15.48130254,.0005758,97.6216,325.3852,260.1745,99.8855,0,U,56958,999,16928,.40769E-3,.21346E-3,0
TOMORROW-R2,2023-084AG,2026-06-25T17:15:22.071744,16.26745437,.0010718,97.6002,342.3346,254.2593,105.7517,0,U,56962,999,17043,.86604E-3,.2849339E-1,.25966E-5
AFR-1,2023-084AJ,2026-06-25T20:57:31.790304,15.28621738,.0009251,97.6278,313.7738,313.7011,46.3461,0,U,56964,999,16855,.18249E-3,.5006E-4,0
METEOR-M2 3,2023-091A,2026-06-25T21:09:00.597024,14.24047413,.0004775,98.6079,231.6817,134.0528,226.1044,0,U,57166,999,15575,.17874E-4,-.2E-7,0
UMKA 1 (RS40S),2023-091G,2026-06-25T20:16:09.641856,15.20910648,.0014303,97.5052,235.5085,90.9703,269.3171,0,U,57172,999,16532,.33819E-3,.7431E-4,0
2023-091H,2023-091H,2026-06-25T19:45:25.552224,15.28812569,.0011172,97.5051,240.0853,87.0441,273.2077,0,U,57173,999,16562,.47833E-3,.13351E-3,0
2023-091J,2023-091J,2026-06-25T20:19:18.100128,15.13982640,.0014781,97.5054,229.8196,115.9252,244.3505,0,U,57174,999,16494,.22415E-3,.4011E-4,0
CUBEBEL 2 (EU11S),2023-091K,2026-06-25T19:42:23.102208,15.29356206,.0011157,97.5054,240.1155,88.4989,271.7529,0,U,57175,999,16562,.53704E-3,.15255E-3,0
SITRO-AIS 5 (KATYS),2023-091L,2026-06-25T20:04:26.752800,15.29642249,.0012499,97.5063,240.8183,76.5887,283.6745,0,U,57176,999,16566,.49038E-3,.14051E-3,0
ZORKIY-2M 1,2023-091M,2026-06-25T19:55:49.000800,15.21010016,.0014809,97.5093,235.7682,88.4348,271.8584,0,U,57177,999,16531,.38095E-3,.8406E-4,0
CUBESX-HSE 3 (RS42S),2023-091N,2026-06-25T20:45:20.180160,15.31420364,.0011593,97.5094,242.5620,67.6729,292.5740,0,U,57178,999,16575,.53437E-3,.16185E-3,0
MONITOR-3 (RS58S),2023-091Q,2026-06-25T20:14:00.688128,15.28005767,.0012812,97.5087,240.3529,74.0876,286.1774,0,U,57180,999,16561,.46191E-3,.12582E-3,0
MONITOR-4 (RS57S),2023-091S,2026-06-25T19:43:09.586272,15.28089775,.0012816,97.5080,240.3029,74.3769,285.8884,0,U,57182,999,16561,.43686E-3,.11925E-3,0
MONITOR-2 (RS39S),2023-091U,2026-06-25T19:27:36.654624,15.18984502,.0012765,97.5074,235.0379,85.0899,275.1793,0,U,57184,999,16526,.25306E-3,.5235E-4,0
SVYATOBOR 1 (RS60S),2023-091X,2026-06-25T20:12:46.849824,15.26752355,.0010571,97.5092,240.7072,68.3707,291.8656,0,U,57187,999,16563,.39714E-3,.10391E-3,0
HORS 1,2023-091Y,2026-06-25T19:51:04.688640,15.26862852,.0010048,97.5070,240.4532,68.5609,291.6701,0,U,57188,999,16563,.38709E-3,.10159E-3,0
VIZARD-METEO (RS38S),2023-091Z,2026-06-25T19:28:12.760320,15.36282701,.0007641,97.5094,246.4700,51.2377,308.9548,0,U,57189,999,16601,.57332E-3,.20243E-3,0
SITRO-AIS 6 (CHIRKIN),2023-091AC,2026-06-25T20:02:58.413984,15.26089500,.0012916,97.5071,239.8904,79.8089,280.4605,0,U,57192,999,16560,.46065E-3,.11837E-3,0
SITRO-AIS 8 (ANOKHIN),2023-091AD,2026-06-25T20:07:04.023264,15.32354437,.0011444,97.5060,242.4442,73.0772,287.1723,0,U,57193,999,16577,.52788E-3,.16461E-3,0
SITRO-AIS 7 (FARTUSHNIY),2023-091AE,2026-06-25T20:10:03.950400,15.25773907,.0012788,97.5069,239.7159,80.7587,279.5096,0,U,57194,999,16559,.46107E-3,.11735E-3,0
